IRIDIUM 154             
1 43574U 18061F   26198.02275997  .00000039  00000+0  67638-5 0  9992
2 43574  86.3940  44.3267 0002301  90.0435 270.1025 14.34217536417687
IRIDIUM 163             
1 43575U 18061G   26198.28280705  .00000014  00000+0 -22282-5 0  9994
2 43575  86.3934  44.1321 0002006  85.3111 274.8314 14.34217115417696
IRIDIUM 156             
1 43576U 18061H   26198.04812990  .00000066  00000+0  16627-4 0  9997
2 43576  86.3936  44.2377 0002126  93.4368 266.7071 14.34218044417656
IRIDIUM 164             
1 43577U 18061J   26198.02910307  .00000114  00000+0  33527-4 0  9999
2 43577  86.3938  44.2866 0002339  89.1929 270.9535 14.34218566417698
IRIDIUM 159             
1 43578U 18061K   26198.27646362  .00000045  00000+0  91132-5 0  9994
2 43578  86.3935  44.1194 0002134  85.8386 274.3053 14.34217636417692
IRIDIUM 180             
1 43922U 19002A   26197.92711751  .00000110  00000+0  32166-4 0  9993
2 43922  86.3993 341.1653 0002165  91.8850 268.2594 14.34217889393253
IRIDIUM 176             
1 43923U 19002B   26198.33676590  .00000377  00000+0  55955-4 0  9997
2 43923  86.6114 340.9333 0002333  90.3542 269.7943 14.72250602403688
IRIDIUM 168             
1 43924U 19002C   26198.33938708  .00000016  00000+0 -11820-5 0  9995
2 43924  86.3996 341.0709 0002185  90.4019 269.7427 14.34216837393290
IRIDIUM 173             
1 43925U 19002D   26197.90808992 -.00000070  00000+0 -32133-4 0  9999
2 43925  86.3987 341.1392 0002031  92.7726 267.3703 14.34217637393212
IRIDIUM 169             
1 43926U 19002E   26198.23073093  .00000060  00000+0  13169-4 0  9998
2 43926  86.4223  12.6286 0001962 104.3780 255.7636 14.38613573394547
IRIDIUM 172             
1 43927U 19002F   26197.97151642  .00000034  00000+0  49077-5 0  9995
2 43927  86.3992 341.1202 0002185  91.3558 268.7888 14.34217631393233
IRIDIUM 175             
1 43928U 19002G   26198.21970965  .00000170  00000+0  44293-4 0  9996
2 43928  86.4511 277.9680 0005407 111.5164 248.6614 14.43627862403312
IRIDIUM 171             
1 43929U 19002H   26197.95248799  .00000052  00000+0  11614-4 0  9990
2 43929  86.4002 341.4376 0002244  94.8167 265.3286 14.34217839393227
IRIDIUM 170             
1 43930U 19002J   26197.93512818  .00000373  00000+0  55229-4 0  9992
2 43930  86.6112 341.1033 0002238  87.1001 273.0472 14.72250887403637
IRIDIUM 167             
1 43931U 19002K   26197.94614535  .00000032  00000+0  45150-5 0  9998
2 43931  86.3994 341.1537 0002324  98.3232 261.8227 14.34217740393223
IRIDIUM 181             
1 56726U 23068S   26197.98742081  .00000090  00000+0  20648-4 0  9991
2 56726  86.4475  44.3280 0002403  84.5328 275.6147 14.43307697166731
IRIDIUM 177             
1 56727U 23068T   26198.34057257  .00000541  00000+0  68021-4 0  9995
2 56727  86.1987 314.4760 0002197  96.6258 263.5213 14.80025922170821
IRIDIUM 174             
1 56728U 23068U   26198.33047932  .00000382  00000+0  56672-4 0  9996
2 56728  86.6121 341.0885 0001983  89.3733 270.7712 14.72259778170452
IRIDIUM 178             
1 56729U 23068V   26197.92390630  .00000174  00000+0  19584-4 0  9997
2 56729  86.6537  12.9311 0002281  90.8170 269.3312 14.80028189170769
IRIDIUM 179             
1 56730U 23068W   26197.98616836  .00000089  00000+0  82506-5 0  9994
2 56730  86.6768  21.9724 0002351  93.5958 266.5533 14.80023217170779
